[{"OBJECT_NAME":"STARLINK-30450","OBJECT_ID":"2023-147A","EPOCH":"2026-03-09T22:00:01.999584","MEAN_MOTION":15.26753138,"ECCENTRICITY":0.00016139,"INCLINATION":42.9999,"RA_OF_ASC_NODE":323.5204,"ARG_OF_PERICENTER":272.0502,"MEAN_ANOMALY":227.1858,"EPHEMERIS_TYPE":0,"CLASSIFICATION_TYPE":"U","NORAD_CAT_ID":57913,"ELEMENT_SET_NO":999,"REV_AT_EPOCH":567,"BSTAR":-0.00036162797,"MEAN_MOTION_DOT":-9.951e-5,"MEAN_MOTION_DDOT":0},{"OBJECT_NAME":"OBJECT M","OBJECT_ID":"2024-205M","EPOCH":"2026-03-09T22:23:47.520096","MEAN_MOTION":15.27663844,"ECCENTRICITY":0.00036602,"INCLINATION":97.3915,"RA_OF_ASC_NODE":144.193,"ARG_OF_PERICENTER":310.2554,"MEAN_ANOMALY":49.8364,"EPHEMERIS_TYPE":0,"CLASSIFICATION_TYPE":"U","NORAD_CAT_ID":61905,"ELEMENT_SET_NO":999,"REV_AT_EPOCH":7334,"BSTAR":0.00036391974,"MEAN_MOTION_DOT":9.771e-5,"MEAN_MOTION_DDOT":0}]
